DUCHIFAT-3              
1 44854U 19089C   24102.37022549  .00012200  00000+0  66662-3 0  9996
2 44854  36.9580  93.9171 0010153 256.6647 103.2967 15.13693742238130
TIANYAN 01              
1 44881U 19093C   24102.81105125  .00001170  00000+0  14858-3 0  9996
2 44881  97.8303 180.8801 0014674 174.6497 185.4877 14.83455995233206
RS-44 & BREEZE-KM R/B   
1 44909U 19096E   24102.57939251  .00000029  00000+0  72251-4 0  9992
2 44909  82.5210 149.0369 0217037 206.6574 152.3239 12.79728501200456
BY70-2                  
1 45857U 20042B   24102.82843455  .00055287  00000+0  29994-2 0  9996
2 45857  97.9087 192.9009 0004646 110.6453 249.5277 15.14335558204452
SALSAT                  
1 46495U 20068K   24102.45779361  .00005281  00000+0  31221-3 0  9992
2 46495  97.8115  60.1610 0014276 173.2771 186.8652 15.11842979194224
RADFXSAT-2 (AO-109)     
1 47311U 21002C   24102.32618385  .00582994  15310-3  13339-2 0  9997
2 47311  60.6597 320.3054 0008370 111.0613 249.1404 15.96954462180801
UVSQ-SAT                
1 47438U 21006AB  24102.42566955  .00033053  00000+0  81942-3 0  9996
2 47438  97.3342 162.3545 0008360 103.2044 257.0136 15.40283232178430
LEDSAT                  
1 49069U 21073D   24102.71815822  .00013576  00000+0  59432-3 0  9991
2 49069  97.4419 174.4115 0021507 155.5371 204.6890 15.21945390146334
XW-3 (CAS-9)            
1 50466U 21131B   24102.81818401  .00000653  00000+0  22390-3 0  9991
2 50466  98.5275 188.2084 0003406 339.2484  20.8564 14.39473722120455
TEVEL-3                 
1 50988U 22002E   24102.85859466  .00065055  00000+0  11723-2 0  9992
2 50988  97.3853 176.2919 0005196 223.2411 136.8433 15.49556025124724
TEVEL-8                 
1 50989U 22002F   24102.82951669  .00062131  00000+0  11253-2 0  9998
2 50989  97.3871 176.3499 0005185 223.0941 136.9904 15.49423540124711
TEVEL-5                 
1 50998U 22002Q   24102.84988519  .00073372  00000+0  11919-2 0  9992
2 50998  97.3838 177.2983 0005891 217.1446 142.9400 15.52447862124793
TEVEL-6                 
1 50999U 22002R   24102.85259836  .00074276  00000+0  12105-2 0  9999
2 50999  97.3833 177.2788 0005804 217.2931 142.7920 15.52354161124790
TEVEL-1                 
1 51013U 22002AF  24102.81802709  .00062365  00000+0  11297-2 0  9993
2 51013  97.3849 176.1270 0005204 223.7157 136.3683 15.49418588124712
TEVEL-7                 
1 51062U 22002CG  24102.82147326  .00062531  00000+0  11283-2 0  9995
2 51062  97.3867 176.3154 0005285 222.9710 137.1129 15.49528541124719
TEVEL-4                 
1 51063U 22002CH  24102.85026057  .00061484  00000+0  11200-2 0  9991
2 51063  97.3868 176.2680 0005274 222.9062 137.1778 15.49261446124710
TEVEL-2                 
1 51069U 22002CP  24102.85746862  .00064345  00000+0  11582-2 0  9992
2 51069  97.3850 176.2582 0005193 222.7757 137.3091 15.49591077124724
GREENCUBE               
1 53106U 22080B   24099.70722617 -.00000003  00000+0  00000+0 0  9995
2 53106  70.1414 216.6532 0008047 121.1128 239.0321  6.42557348 40800
KUZBASS-300 (RS34S)     
1 53375U 22096F   24102.31450500  .00200753  00000+0  12988-2 0  9995
2 53375  97.3873  20.8245 0006387 114.2698 245.9234 15.75462314 93973
UTMN (RS23S)            
1 53376U 22096G   24102.30939150  .00269762  00000+0  13296-2 0  9996
2 53376  97.3852  21.7025 0006509 122.5232 237.6666 15.81384980 94033
MIET-AIS (RS28S)        
1 53377U 22096H   24102.83475705  .00113517  00000+0  10143-2 0  9990
2 53377  97.3916  20.4968 0005022 111.5636 248.6161 15.68020931 93996
KAI-1 (RS26S)           
1 53378U 22096J   24102.83507658  .00049717  00000+0  68786-3 0  9991
2 53378  97.3983  18.6266 0003537 114.3639 245.7985 15.56969120 93861
ISOI (RS19S)            
1 53381U 22096M   24102.81206355  .00124512  00000+0  10218-2 0  9996
2 53381  97.3937  21.2825 0005438 101.4814 258.7059 15.70064568 94044
CUBESX-HSE-2 (RS21S)    
1 53383U 22096P   24102.62244121  .00241852  00000+0  12472-2 0  9991
2 53383  97.3850  22.2260 0006647 107.1229 253.0767 15.80463572 94098
SIREN (RS30S)           
1 53384U 22096Q   24102.83739407  .00072351  00000+0  78751-3 0  9990
2 53384  97.3951  20.0702 0004911  86.5564 273.6256 15.63191781 93969
CAS-5A (FO-118)         
1 54684U 22167C   24102.86407867  .00020447  00000+0  80400-3 0  9991
2 54684  97.5975 246.3723 0010062  19.8430 340.3197 15.25650366 74177
STRATOSAT-TK 1 (RS52S)  
1 57167U 23091B   24102.87306083  .00010475  00000+0  64964-3 0  9993
2 57167  97.6190 156.2213 0014913 352.2143   7.8852 15.09828953 43544
UMKA 1 (RS40S)          
1 57172U 23091G   24102.86975821  .00004441  00000+0  30411-3 0  9996
2 57172  97.6194 155.6108 0016487 353.7812   6.3208 15.06483744 43504
CUBESX-HSE 3 (RS42S)    
1 57178U 23091N   24102.87643675  .00006423  00000+0  42696-3 0  9992
2 57178  97.6229 155.8938 0016836 347.3597  12.7207 15.07414638 43517
MONITOR-4 (RS57S)       
1 57182U 23091S   24102.84564583  .00005433  00000+0  36528-3 0  9991
2 57182  97.6207 155.7376 0017291 347.6288  12.4512 15.07052251 43503
MONITOR-2 (RS39S)       
1 57184U 23091U   24102.84125216  .00003969  00000+0  27059-3 0  9990
2 57184  97.6213 155.9152 0013702 342.1815  17.8930 15.06744333 43517
SVYATOBOR 1 (RS60S)     
1 57187U 23091X   24102.85713655  .00004772  00000+0  31460-3 0  9998
2 57187  97.6220 156.2061 0012932 340.4852  19.5879 15.07897947 43531
VIZARD-METEO (RS38S)    
1 57189U 23091Z   24102.86694902  .00006482  00000+0  41376-3 0  9991
2 57189  97.6215 156.4724 0011692 338.7612  21.3129 15.08965541 43559
NANOZOND 1 (RS49S)      
1 57190U 23091AA  24102.83205863  .00010321  00000+0  62463-3 0  9991
2 57190  97.6187 156.7281 0010222 343.2432  16.8458 15.10773415 43575
POLYTECH-UNIVERSE 3 (R*)
1 57191U 23091AB  24102.84225622  .00004323  00000+0  29464-3 0  9997
2 57191  97.6180 155.6381 0019531 358.2512   1.8643 15.06633621 43507
UTMN 2 (RS27S)          
1 57203U 23091AP  24102.83908352  .00006618  00000+0  42648-3 0  9996
2 57203  97.6208 156.3536 0012241 337.8230  22.2468 15.08598906 43547
ARCCUBE 1 (RS25S)       
1 57205U 23091AR  24102.84983712  .00010619  00000+0  62996-3 0  9996
2 57205  97.6157 156.7841 0010359 344.6853  15.4062 15.11489666 43584
KUZGTU 1 (RS47S)        
1 57217U 23091AV  24102.87982266  .00006194  00000+0  41291-3 0  9993
2 57217  97.6205 155.7968 0016821 348.5306  11.5536 15.07318983 43510
HADES-D (SO-121)        
1 58567U 23174CY  24102.17921846  .00030733  00000+0  13313-2 0  9993
2 58567  97.4588 178.0561 0014391 111.1181 249.1595 15.22246657 23565
CUTE-1 (CO-55)          
1 27844U 03031E   24102.58405492  .00000441  00000+0  21449-3 0  9999
2 27844  98.6799 110.5408 0009316 345.3983  14.6925 14.23155246 78317
CUBESAT XI-IV (CO-57)   
1 27848U 03031J   24102.56267232  .00000366  00000+0  18341-3 0  9992
2 27848  98.6830 110.8010 0009555   1.6791 358.4418 14.22612139 78069
CUBESAT XI-V            
1 28895U 05043F   24102.62555138  .00002251  00000+0  40790-3 0  9990
2 28895  98.1910 238.4185 0015675 203.8035 156.2445 14.67220741984695
CUTE-1.7+APD II (CO-65) 
1 32785U 08021C   24102.87836153  .00004157  00000+0  37837-3 0  9993
2 32785  97.7503  68.8343 0011053 177.2200 182.9084 14.95683875865635
AAUSAT-II               
1 32788U 08021F   24102.50145288  .00018669  00000+0  10365-2 0  9997
2 32788  97.5927  82.7357 0008280  60.3531 299.8524 15.13753673868223
SEEDS II (CO-66)        
1 32791U 08021J   24102.42822434  .00007231  00000+0  55495-3 0  9994
2 32791  97.6865  74.0830 0006894 142.9260 217.2441 15.02063191866490
SWISSCUBE               
1 35932U 09051B   24102.56934935  .00001243  00000+0  27663-3 0  9996
2 35932  98.4804 344.5347 0007644 154.7210 205.4364 14.58752147772844
BEESAT-1                
1 35933U 09051C   24102.56273417  .00001083  00000+0  24344-3 0  9993
2 35933  98.4732 345.5219 0005709 164.0293 196.1087 14.58528029772915
ITUPSAT1                
1 35935U 09051E   24102.59878339  .00000987  00000+0  22781-3 0  9997
2 35935  98.4830 345.3775 0007799 173.8112 186.3184 14.57507541772565
TISAT 1                 
1 36799U 10035E   24102.58373524  .00006795  00000+0  53816-3 0  9991
2 36799  98.0946 349.1972 0007925  91.9869 268.2261 15.00907200747269
M-CUBED & EXP-1 PRIME   
1 37855U 11061F   24102.32483807  .00112971  00000+0  13614-2 0  9998
2 37855 101.6887 245.2742 0064132 191.2776 168.7030 15.57871937682550
AEROCUBE 4.5A           
1 38767U 12048K   24102.56686169  .00008703  00000+0  51234-3 0  9997
2 38767  64.6606 167.9804 0105753  41.9376 318.9780 15.07553190250411
AEROCUBE 4.5B           
1 38768U 12048L   24102.38701881  .00025517  00000+0  10650-2 0  9995
2 38768  64.6559  98.5720 0089918  30.5151 330.1162 15.19933227251253
STRAND-1                
1 39090U 13009E   24102.45731943  .00000384  00000+0  14695-3 0  9991
2 39090  98.3832 292.5805 0010087  92.2651 267.9691 14.35967364582663
BRITE-AUSTRIA           
1 39091U 13009F   24102.49124103  .00000272  00000+0  10888-3 0  9996
2 39091  98.3870 291.8789 0011562  98.2632 261.9866 14.35735233582692
NEE-01 PEGASO           
1 39151U 13018B   24102.79627624  .00003373  00000+0  40074-3 0  9997
2 39151  98.0273 219.3237 0014230 254.1882 105.7764 14.85057619592122
ESTCUBE 1               
1 39161U 13021C   24102.71029433  .00002105  00000+0  31332-3 0  9997
2 39161  97.8327 171.2075 0010395  87.7548 272.4852 14.75899181587326
POPACS 1                
1 39268U 13055D   24102.31858862  .00021254  00000+0  39823-3 0  9993
2 39268  80.9858 227.6370 0428446 306.8447  49.4180 14.86671119550588
POPACS 2                
1 39269U 13055E   24101.57455373  .00019481  00000+0  45851-3 0  9998
2 39269  81.0009 312.6610 0562627 168.7964 192.6404 14.53990402545767
